{"fetched_at":"2026-03-29T16:36:15Z","count":15609,"tles":[{"name":"STARLINK-30380","line1":"1 57780U 23134K   26087.69103083  .00000963  00000+0  44497-4 0  9992","line2":"2 57780  43.0022  87.0917 0001557 271.2685  88.7989 15.27586621142415","category":"Starlink"}]}